[{"OBJECT_NAME":"OBJECT V","OBJECT_ID":"2023-085V","EPOCH":"2026-03-09T21:44:00.165408","MEAN_MOTION":15.30745852,"ECCENTRICITY":0.00069081,"INCLINATION":97.4843,"RA_OF_ASC_NODE":179.3833,"ARG_OF_PERICENTER":71.0503,"MEAN_ANOMALY":289.1485,"EPHEMERIS_TYPE":0,"CLASSIFICATION_TYPE":"U","NORAD_CAT_ID":57023,"ELEMENT_SET_NO":999,"REV_AT_EPOCH":15149,"BSTAR":0.00067780507,"MEAN_MOTION_DOT":0.00020109,"MEAN_MOTION_DDOT":0},{"OBJECT_NAME":"STARLINK-31880","OBJECT_ID":"2024-084H","EPOCH":"2026-03-09T06:56:52.247904","MEAN_MOTION":15.27585034,"ECCENTRICITY":0.0001888,"INCLINATION":43.0046,"RA_OF_ASC_NODE":40.4529,"ARG_OF_PERICENTER":270.5346,"MEAN_ANOMALY":89.5289,"EPHEMERIS_TYPE":0,"CLASSIFICATION_TYPE":"U","NORAD_CAT_ID":59661,"ELEMENT_SET_NO":999,"REV_AT_EPOCH":10435,"BSTAR":1.5926467e-5,"MEAN_MOTION_DOT":1.76e-6,"MEAN_MOTION_DDOT":0}]
